NORAD_CAT_ID,OBJECT_NAME,OBJECT_TYPE,EPOCH,MEAN_MOTION,ECCENTRICITY,INCLINATION,RA_OF_ASC_NODE,ARG_OF_PERICENTER,MEAN_ANOMALY,BSTAR,MEAN_MOTION_DOT,MEAN_MOTION_DDOT,TLE_LINE0,TLE_LINE1,TLE_LINE2,SEMIMAJOR_AXIS,PERIOD,APOGEE,PERIGEE,DECAYED
49417.0,STARLINK-3154,PAYLOAD,2023-09-20 10:05:58,15.10466934,0.0001617,53.217,304.8795,89.2743,270.8435,-0.00015552,-2.88e-05,0.0,0 STARLINK-3154,1 49417U 21104K   23263.42082115 -.00002880  00000-0 -15552-3 0  9993,2 49417  53.2170 304.8795 0001617  89.2743 270.8435 15.10466934102707,6912.912,95.335,535.895,533.659,0.0
49417.0,STARLINK-3154,PAYLOAD,2023-09-21 09:55:13,15.10472253,0.0001606,53.217,300.4131,90.5894,269.5283,3.9791e-07,-2.86e-06,0.0,0 STARLINK-3154,1 49417U 21104K   23264.41334794 -.00000286  00000-0  39791-6 0  9997,2 49417  53.2170 300.4131 0001606  90.5894 269.5283 15.10472253103969,6912.896,95.334,535.871,533.651,0.0
49417.0,STARLINK-3154,PAYLOAD,2023-09-22 09:44:27,15.1048258,0.0001571,53.2165,295.9461,92.4917,267.6255,0.00035728,5.661e-05,0.0,0 STARLINK-3154,1 49417U 21104K   23265.40587094  .00005661  00000-0  35728-3 0  9994,2 49417  53.2165 295.9461 0001571  92.4917 267.6255 15.10482580103002,6912.864,95.334,535.815,533.643,0.0
49417.0,STARLINK-3154,PAYLOAD,2023-09-23 01:37:16,15.10484465,0.0001629,53.2167,292.9682,89.284,270.834,0.00021369,3.267e-05,0.0,0 STARLINK-3154,1 49417U 21104K   23266.06755284  .00003267  00000-0  21369-3 0  9991,2 49417  53.2167 292.9682 0001629  89.2840 270.8340 15.10484465104218,6912.858,95.334,535.85,533.597,0.0
49417.0,STARLINK-3154,PAYLOAD,2023-09-23 11:08:57,15.10491572,0.000161,53.216,291.1808,91.6246,268.4932,0.00028539,4.463e-05,0.0,0 STARLINK-3154,1 49417U 21104K   23266.46455604  .00004463  00000-0  28539-3 0  9993,2 49417  53.2160 291.1808 0001610  91.6246 268.4932 15.10491572103169,6912.837,95.333,535.815,533.589,0.0
49417.0,STARLINK-3154,PAYLOAD,2023-09-23 19:05:22,15.10476743,0.0001619,53.2161,289.6923,92.974,267.1438,3.8656e-06,-2.28e-06,0.0,0 STARLINK-3154,1 49417U 21104K   23266.79540233 -.00000228  00000-0  38656-5 0  9991,2 49417  53.2161 289.6923 0001619  92.9740 267.1438 15.10476743104321,6912.882,95.334,535.866,533.628,0.0
49417.0,STARLINK-3154,PAYLOAD,2023-09-24 07:47:34,15.10589601,0.0001001,53.2155,287.3084,112.9274,247.1824,0.0021739,0.00036196,0.0,0 STARLINK-3154,1 49417U 21104K   23267.32470547  .00036196  00000-0  21739-2 0  9994,2 49417  53.2155 287.3084 0001001 112.9274 247.1824 15.10589601104401,6912.538,95.327,535.095,533.711,0.0
49417.0,STARLINK-3154,PAYLOAD,2023-09-24 17:19:19,15.10481896,0.0001438,53.2158,285.5215,128.5747,231.5375,0.00010207,1.407e-05,0.0,0 STARLINK-3154,1 49417U 21104K   23267.72175248  .00001407  00000-0  10207-3 0  9994,2 49417  53.2158 285.5215 0001438 128.5747 231.5375 15.10481896104463,6912.866,95.334,535.725,533.737,0.0
49417.0,STARLINK-3154,PAYLOAD,2023-09-25 07:36:51,15.10490085,0.0001417,53.2155,282.8428,93.634,266.4815,0.0003389,5.356e-05,0.0,0 STARLINK-3154,1 49417U 21104K   23268.31726603  .00005356  00000-0  33890-3 0  9997,2 49417  53.2155 282.8428 0001417  93.6340 266.4815 15.10490085103447,6912.841,95.333,535.686,533.727,0.0
49417.0,STARLINK-3154,PAYLOAD,2023-09-26 07:26:05,15.10490995,0.0001297,53.2163,278.3757,87.1276,272.9866,0.00023797,3.673e-05,0.0,0 STARLINK-3154,1 49417U 21104K   23269.30978418  .00003673  00000-0  23797-3 0  9995,2 49417  53.2163 278.3757 0001297  87.1276 272.9866 15.10490995104701,6912.839,95.333,535.6,533.807,0.0
49417.0,STARLINK-3154,PAYLOAD,2023-09-27 00:54:11,15.10479031,0.000148,53.215,275.0999,94.2808,265.8354,4.9322e-05,5.29e-06,0.0,0 STARLINK-3154,1 49417U 21104K   23270.03763812  .00000529  00000-0  49322-4 0  9997,2 49417  53.2150 275.0999 0001480  94.2808 265.8354 15.10479031104816,6912.875,95.334,535.763,533.717,0.0
49417.0,STARLINK-3154,PAYLOAD,2023-09-27 10:25:53,15.1048142,0.0001467,53.2155,273.3124,94.1302,265.9858,3.2307e-05,2.45e-06,0.0,0 STARLINK-3154,1 49417U 21104K   23270.43464494  .00000245  00000-0  32307-4 0  9995,2 49417  53.2155 273.3124 0001467  94.1302 265.9858 15.10481420103763,6912.868,95.334,535.747,533.719,0.0
49417.0,STARLINK-3154,PAYLOAD,2023-09-28 00:43:26,15.10466987,0.0001532,53.2158,270.6283,84.933,275.1838,-8.124e-05,-1.644e-05,0.0,0 STARLINK-3154,1 49417U 21104K   23271.03016794 -.00001644  00000-0 -81240-4 0  9994,2 49417  53.2158 270.6283 0001532  84.9330 275.1838 15.10466987104968,6912.912,95.335,535.836,533.718,0.0
49417.0,STARLINK-3154,PAYLOAD,2023-09-28 07:04:34,15.10470243,0.0001462,53.2164,269.4387,85.0506,275.0654,-5.4318e-05,-1.197e-05,0.0,0 STARLINK-3154,1 49417U 21104K   23271.29484441 -.00001197  00000-0 -54318-4 0  9999,2 49417  53.2164 269.4387 0001462  85.0506 275.0654 15.10470243103891,6912.902,95.335,535.778,533.756,0.0
49417.0,STARLINK-3154,PAYLOAD,2023-09-29 00:32:39,15.10480321,0.000137,53.2166,266.1616,80.8208,279.294,0.00016968,2.534e-05,0.0,0 STARLINK-3154,1 49417U 21104K   23272.02268389  .00002534  00000-0  16968-3 0  9994,2 49417  53.2166 266.1616 0001370  80.8208 279.2940 15.10480321105111,6912.871,95.334,535.683,533.789,0.0
49417.0,STARLINK-3154,PAYLOAD,2023-09-29 05:18:30,15.10488101,0.0001396,53.2163,265.2686,82.3043,277.8109,0.00023788,3.671e-05,0.0,0 STARLINK-3154,1 49417U 21104K   23272.22118313  .00003671  00000-0  23788-3 0  9998,2 49417  53.2163 265.2686 0001396  82.3043 277.8109 15.10488101105145,6912.847,95.333,535.677,533.747,0.0
49417.0,STARLINK-3154,PAYLOAD,2023-09-30 03:32:27,15.10477846,0.0001738,53.2156,261.1022,106.0362,254.0822,0.00011198,1.572e-05,0.0,0 STARLINK-3154,1 49417U 21104K   23273.14754421  .00001572  00000-0  11198-3 0  9996,2 49417  53.2156 261.1022 0001738 106.0362 254.0822 15.10477846105282,6912.879,95.334,535.945,533.542,0.0
49417.0,STARLINK-3154,PAYLOAD,2023-09-30 05:07:44,15.10476772,0.0001363,53.2159,260.8053,101.4755,258.6391,0.00010881,1.519e-05,0.0,0 STARLINK-3154,1 49417U 21104K   23273.21371346  .00001519  00000-0  10881-3 0  9994,2 49417  53.2159 260.8053 0001363 101.4755 258.6391 15.10476772104180,6912.882,95.334,535.689,533.805,0.0
49417.0,STARLINK-3154,PAYLOAD,2023-10-01 04:56:58,15.10475986,0.0001473,53.2169,256.3367,98.943,261.1729,-9.8379e-05,-1.93e-05,0.0,0 STARLINK-3154,1 49417U 21104K   23274.20623761 -.00001930  00000-0 -98379-4 0  9993,2 49417  53.2169 256.3367 0001473  98.9430 261.1729 15.10475986105441,6912.884,95.334,535.768,533.731,0.0
49417.0,STARLINK-3154,PAYLOAD,2023-10-01 08:07:32,15.10480945,0.0001512,53.2165,255.7388,88.7808,271.3358,2.6762e-05,1.53e-06,0.0,0 STARLINK-3154,1 49417U 21104K   23274.33857129  .00000153  00000-0  26762-4 0  9995,2 49417  53.2165 255.7388 0001512  88.7808 271.3358 15.10480945104354,6912.869,95.334,535.779,533.689,0.0
49417.0,STARLINK-3154,PAYLOAD,2023-10-01 16:03:57,15.10470798,0.0001554,53.216,254.2513,122.5057,237.6086,5.7482e-05,6.64e-06,0.0,0 STARLINK-3154,1 49417U 21104K   23274.66941837  .00000664  00000-0  57482-4 0  9991,2 49417  53.2160 254.2513 0001554 122.5057 237.6086 15.10470798104406,6912.9,95.335,535.839,533.691,0.0
49417.0,STARLINK-3154,PAYLOAD,2023-10-02 07:56:46,15.10480775,0.0001207,53.2155,251.2742,105.0799,255.0327,0.0001879,2.837e-05,0.0,0 STARLINK-3154,1 49417U 21104K   23275.33109713  .00002837  00000-0  18790-3 0  9997,2 49417  53.2155 251.2742 0001207 105.0799 255.0327 15.10480775105617,6912.87,95.334,535.569,533.9,0.0
49417.0,STARLINK-3154,PAYLOAD,2023-10-02 15:53:11,15.10483391,0.0001192,53.2153,249.7861,106.875,253.2373,0.00023053,3.548e-05,0.0,0 STARLINK-3154,1 49417U 21104K   23275.66193707  .00003548  00000-0  23053-3 0  9997,2 49417  53.2153 249.7861 0001192 106.8750 253.2373 15.10483391104558,6912.862,95.334,535.551,533.903,0.0
49417.0,STARLINK-3154,PAYLOAD,2023-10-03 04:35:30,15.10409982,0.000155,53.2164,247.4032,55.3246,304.7892,-0.00082884,-0.00014039,0.0,0 STARLINK-3154,1 49417U 21104K   23276.19132423 -.00014039  00000-0 -82884-3 0  9990,2 49417  53.2164 247.4032 0001550  55.3246 304.7892 15.10409982105745,6913.086,95.338,536.022,533.879,0.0
49417.0,STARLINK-3154,PAYLOAD,2023-10-03 07:46:07,15.10348599,0.0001377,53.215,246.8074,107.467,252.6473,-0.0016506,-0.00027569,0.0,0 STARLINK-3154,1 49417U 21104K   23276.32369654 -.00027569  00000-0 -16506-2 0  9992,2 49417  53.2150 246.8074 0001377 107.4670 252.6473 15.10348599105760,6913.273,95.342,536.09,534.186,0.0
49417.0,STARLINK-3154,PAYLOAD,2023-10-03 15:42:43,15.10191706,0.0003189,53.2155,245.3189,88.7597,271.3761,-0.0033415,-0.0005507,0.0,0 STARLINK-3154,1 49417U 21104K   23276.65466589 -.00055070  00000-0 -33415-2 0  9999,2 49417  53.2155 245.3189 0003189  88.7597 271.3761 15.10191706105818,6913.752,95.352,537.822,533.412,0.0
49417.0,STARLINK-3154,PAYLOAD,2023-10-04 10:46:52,15.09603956,0.000134,53.2163,241.7488,60.7162,299.3964,-0.0092385,-0.00147381,0.0,0 STARLINK-3154,1 49417U 21104K   23277.44922332 -.00147381  00000-0 -92385-2 0  9998,2 49417  53.2163 241.7488 0001340  60.7162 299.3964 15.09603956105935,6915.546,95.389,538.338,536.485,0.0
49417.0,STARLINK-3154,PAYLOAD,2023-10-04 13:57:39,15.09485365,0.0001688,53.216,241.1543,94.6289,265.4896,-0.010128,-0.00160723,0.0,0 STARLINK-3154,1 49417U 21104K   23277.58170219 -.00160723  00000-0 -10128-1 0  9991,2 49417  53.2160 241.1543 0001688  94.6289 265.4896 15.09485365104848,6915.908,95.397,538.941,536.606,0.0
49417.0,STARLINK-3154,PAYLOAD,2023-10-04 22:00:01,15.08834569,0.0001558,53.2162,239.6506,101.3522,279.8776,0.00096604,0.00015118,0.0,0 STARLINK-3154,1 49417U 21104K   23277.91668981  .00015118  00000-0  96604-3 0  9996,2 49417  53.2162 239.6506 0001558 101.3522 279.8776 15.08834569106002,6917.897,95.438,540.84,538.684,0.0
49417.0,STARLINK-3154,PAYLOAD,2023-10-05 14:00:01,15.08842976,0.0001477,53.216,236.6585,92.1863,312.1549,0.0004706,7.21e-05,0.0,0 STARLINK-3154,1 49417U 21104K   23278.58334491  .00007210  00000-0  47060-3 0  9992,2 49417  53.2160 236.6585 0001477  92.1863 312.1549 15.08842976106100,6917.871,95.437,540.758,538.715,0.0
